"Branch","Address","City","State","ZipCode","Phone"
"Abilene","4590 Sw Drive","Abilene ","TX","79606","(325) 690-1032"
"Alamo Heights","435 Sunset Rd West","San Antonio","TX","78209","(210) 824-9677"
"Allen","909 W Mcdermott Dr","Allen ","TX","75013","(972) 359-0336"
"Alvin","140 N Bypass 35","Alvin ","TX","77511","(281) 585-6164"
"Amarillo","2500 Soncy Rd","Amarillo ","TX","79124","(806) 355-3895"
"Arlington","4611 S Cooper St","Arlington ","TX","76017","(817) 468-4224"
"Austin Mueller Airport","1200 Barbara Jordan Blvd Suite 100","Austin ","TX","78723","(512) 703-4110"
"Balch Springs","12005 Elam Road","Balch Springs","TX","75180","(972) 913-9491"
"Bandera Rd","9115 N Loop 1604 W","San Antonio","TX","78249","(210) 695-2349"
"Bastrop","525 Hwy 71 W","Bastrop ","TX","78602","(512) 308-1022"
"Baytown","4915 Garth Road","Baytown ","TX","77521","(281) 428-5091"
"Beaumont","3910 Eastex Freeway","Beaumont ","TX","77703","(409) 892-4131"
"Bee Cave","3600 Ranch Road 620 S","Bee Cave","TX","78738","(512) 263-0785"
"Bellmead Waco","1803 North I-35 Bellmead Waco","Waco ","TX","76705","(254) 867-8575"
"Beltway 8","6800 W Sam Houston Pkwy South","Houston ","TX","77072","(281) 498-6445"
"Bitters Rd","1066 Central Pkwy S","San Antonio","TX","78232","(210) 545-1431"
"Boerne","633 West Bandera Rd","Boerne ","TX","78006","(830) 249-2834"
"Brenham, TX","2801 Wood Ridge Blvd","Brenham ","TX","77833","(979) 277-9964"
"Bridgepoint","4038 South Port Avenue","Corpus Christi","TX","78415","(361) 853-9173"
"Brinkman","999 North Loop West","Houston ","TX","77008","(713) 802-9725"
"Brownsville","4551 Padre Island Hwy","Brownsville ","TX","78521","(956) 544-5466"
"Brownwood","100 Market Place Blvd","Brownwood ","TX","76801","(325) 643-1381"
"Bulverde","128 Bulverde Crossing","Bulverde ","TX","78163","(830) 438-8805"
"Burleson","300 Nw John Jones","Burleson ","TX","76028","(817) 447-6602"
"Cambray","5101 Cambray Dr","San Antonio","TX","78229","(210) 520-0630"
"Carrollton","2011 Keller Springs Rd","Carrollton ","TX","75006","(972) 242-8437"
"Cedar Hill","373 E Fm 1382","Cedar Hill","TX","75104","(972) 299-9390"
"Cedar Park","2700 Whitestone Blvd","Cedar Park","TX","78613","(512) 528-9053"
"Central Plano","1801 West Parker Road","Plano ","TX","75023","(972) 599-3280"
"Clear Lake Shores","507 Fm 2094","Clear Lake","TX","77565","(281) 538-3988"
"Cleburne","212 W Katherine P Raines Blvd","Cleburne ","TX","76033","(817) 645-0722"
"Coit Rd","2220 N Coit Rd","Richardson ","TX","75080","(214) 575-3070"
"College Station","1615 University Dr East","College Station","TX","77840","(979) 595-1188"
"Conroe","1341 W Davis St","Conroe ","TX","77304","(936) 539-2440"
"Copperfield","6800 Highway 6 North","Houston ","TX","77084","(281) 858-8040"
"Corpus Christi","5041 S Padre Island Dr","Corpus Christi","TX","78411","(361) 993-1400"
"Corsicana","2290 S I-45","Corsicana ","TX","75109","(903) 875-1934"
"Culebra","5638 W Loop 1604 North","San Antonio","TX","78251","(210) 520-4198"
"Del Rio","2454 Veterans Blvd","Del Rio","TX","78840","(830) 774-0456"
"Denton","1900 Brinker Road","Denton ","TX","76208","(940) 243-0808"
"Dripping Springs","260 East Highway 290","Dripping Springs","TX","78620","(512) 858-5041"
"E Amarillo","2410 S Georgia Street","Amarillo ","TX","79109","(806) 468-9100"
"E Ft Worth","1151 Bridgewood Dr","Fort Worth","TX","76112","(817) 496-3212"
"E Lubbock","2615 50th Street","Lubbock ","TX","79413","(806) 791-4102"
"East El Paso","12221 Montwood Drive","El Paso","TX","79938","(915) 856-3082"
"El Paso","11360 Rojas Drive","El Paso","TX","79936","(915) 599-8741"
"Eldorado-Webster (r0567)","18251 Gulf Freeway","Webster ","TX","77598","(281) 488-2274"
"Euless","251 S Industrial Blvd","Euless ","TX","76040","(817) 545-3000"
"Fair Ave","527 Fair Avenue","San Antonio","TX","78223","(210) 531-9600"
"Five Point","13202 Leopard Street","Corpus Christi","TX","78410","(361) 242-0642"
"Flower Mound","852 Long Prairie Road","Flower Mound","TX","75022","(972) 355-6604"
"Forest Ln","11682 Forest Central Dr","Dallas ","TX","75243","(214) 343-1032"
"Four Points - W Austin","7900 N Fm 620","Austin ","TX","78726","(512) 258-7914"
"Ft Worth","""4850 Sw Loop, 820 Bl R""","Fort Worth","TX","76109","(817) 737-9220"
"Gainesville,TX","804 E Hwy 82","Gainesville ","TX","76240","(940) 665-0939"
"Galveston","702 65th Street","Galveston ","TX","77551","(409) 744-4895"
"Garland","3261 N George Bush Hwy","Garland ","TX","75040","(972) 530-9961"
"Georgetown","1303 Rivery Blvd","Georgetown ","TX","78628","(512) 868-3682"
"Granbury","415 E Highway 377","Granbury ","TX","76048","(817) 579-0050"
"Grand Parkway","6850 S Fry Road","Houston ","TX","77494","(281) 693-8420"
"Grand Prairie","3850 S Carrier Pkwy","Grand Prairie","TX","75052","(972) 237-0025"
"Grand Prairie South","5280 South Hwy 360","Grand Prairie","TX","75052","(972) 602-9385"
"Greenville,TX","7101 Center Point Lane","Greenville ","TX","75402","(903) 454-2125"
"Gulf Freeway","11820 Dickinson Rd","Houston ","TX","77089","(281) 464-2080"
"Gulfgate Mall","6810 Gulf Freeway","Houston ","TX","77087","(713) 649-1108"
"Harlingen","4710 S Expressway 83","Harlingen ","TX","78552","(956) 440-7779"
"Hillcroft","14440 Hillcroft Street","Houston ","TX","77085","(713) 283-8600"
"Houston Hwy 290","14085 Northwest Fwy","Houston ","TX","77040","(713) 690-6619"
"Howard Lane","13309 I-35 North","Austin ","TX","78753","(512) 989-6650"
"Humble","20360 Hwy 59","Humble ","TX","77338","(281) 540-2400"
"Huntsville,TX","215 Interstate 45 North","Huntsville ","TX","77320","(936) 439-0200"
"Hutto","600 W Hwy 79","Hutto ","TX","78634","(512) 759-3688"
"Irving","3200 W Irving Blvd","Irving ","TX","75061","(972) 513-2400"
"Katy","1111 N Fry Rd","Katy ","TX","77449","(281) 599-9170"
"Keller","2013 Hwy 377","Keller ","TX","76248","(817) 745-3376"
"Kerrville","1789 Sidney Baker","Kerrville ","TX","78028","(830) 895-8800"
"Killeen","3201 E Central Texas Exp","Killeen ","TX","76543","(254) 699-3554"
"Kingsbridge","10419 Highway 6 South","Sugar Land","TX","77498","(281) 980-1777"
"Kyle","""3730 Dry Hole Dr, Cr#210""","Kyle ","TX","78640","(512) 295-8170"
"Lake Jackson","100 Abner Jackson Pkwy","Lake Jackson","TX","77566","(979) 297-3562"
"Lake Worth,TX","3950 Jim Wright Frwy","Lake Worth","TX","76135","(817) 237-5355"
"Lakeline","11301 Lakeline Blvd","Austin ","TX","78717","(512) 331-4436"
"Lancaster,TX","500 N I-35 East","Lancaster ","TX","75146","(972) 223-4929"
"Laredo","5710 San Bernardo Ave","Laredo ","TX","78041","(956) 753-8831"
"League City","3200 South Gulf Freeway","League City","TX","77573","(281) 337-5369"
"Lemmon Ave","6110 Lemmon Ave","Dallas ","TX","75209","(214) 654-9939"
"Lewisville","901 N Stemmons Pkwy","Lewisville ","TX","75067","(972) 436-1398"
"Little York","10600 Eastex Freeway","Houston ","TX","77093","(713) 699-0965"
"Live Oak","8138 Agora Pkwy","Selma ","TX","78154","(210) 945-8160"
"Longview","411 E Loop 281","Longview ","TX","75605","(903) 757-4208"
"Lubbock","5801 W Loop 289","Lubbock ","TX","79414","(806) 788-1484"
"Lufkin","4211 S Medford Drive","Lufkin ","TX","75901","(936) 699-3555"
"Lumpkin","1100 Lumpkin Rd","Houston ","TX","77043","(713) 461-9898"
"Mansfield,TX","1725 N Us Hwy 287","Mansfield ","TX","76063","(817) 453-4038"
"Marble Falls","1307 Mormon Mills Rd","Marble Falls","TX","78654","(830) 693-1482"
"Market Street","13400 Market Street","Houston ","TX","77015","(713) 451-9600"
"Mcallen","409 N Jackson Ave","Pharr ","TX","78577","(956) 994-1419"
"Mckinney","1515 N Central Expresswy","Mckinney ","TX","75070","(972) 569-9909"
"Mesquite","18855 I-635","Mesquite ","TX","75150","(972) 682-6294"
"Midland","4009 N Midland","Midland ","TX","79707","(432) 694-8700"
"Military","2658 Sw Military Drive","San Antonio","TX","78224","(210) 932-1199"
"Mission","120 S Shary Road","Mission ","TX","78572","(956) 583-4194"
"Missouri City","5900 Hwy 6 South","Missouri City","TX","77459","(281) 403-1397"
"Mt Pleasant,TX","2530 S Jefferson Ave","Mount Pleasant","TX","75455","(903) 434-7940"
"N Arlington","201 Rd To Six Flags West","Arlington ","TX","76011","(817) 459-4300"
"N Austin","10515 N Mo Pac Expy","Austin ","TX","78759","(512) 338-1001"
"N Brownsville","605 W Morrison Rd","Brownsville ","TX","78520","(956) 350-2232"
"N Fort Worth","7100 North Freeway","Fort Worth","TX","76137","(817) 232-8100"
"N Frisco","5995 El Dorado Pkwy","Frisco ","TX","75033","(469) 633-0607"
"N Houston","10707 North Freeway","Houston ","TX","77037","(281) 820-4745"
"N Mcallen","801 Trenton Road","Mcallen ","TX","78504","(956) 668-8783"
"N Plano","4600 State Hwy 121","Plano ","TX","75024","(972) 377-3613"
"N Richland","6501 Ne Loop 820","Richland Hills","TX","76180","(817) 485-4400"
"N San Antonio","W 12871 Interstate 10","San Antonio","TX","78249","(210) 558-4415"
"New Braunfels","1360 N Ih 35","New Braunfels","TX","78130","(830) 625-4089"
"North 281","20740 Us Hwy 281 North","San Antonio","TX","78258","(210) 494-5580"
"North Irving","8555 Home Depot Drive","Irving ","TX","75063","(972) 506-3006"
"Nw Dallas","11468 Grissom Lane","Dallas ","TX","75229","(972) 484-7077"
"Oak Cliff","2610 Fort Worth Avenue","Dallas ","TX","75211","(214) 942-6658"
"Odessa","5181 E 42nd St","Odessa ","TX","79762","(432) 368-9118"
"Orange","603 Strickland Drive","Orange ","TX","77630","(409) 988-0294"
"Paris,TX","3120 Ne Loop 286","Paris ","TX","75460","(903) 785-3772"
"Pasadena","5455 Fairmont Parkway","Pasadena ","TX","77505","(281) 998-9669"
"Pearland","1514 Broadway St","Pearland ","TX","77581","(281) 993-1111"
"Pflugerville","1517 Town Center Dr","Pflugerville ","TX","78660","(512) 990-5413"
"Pin Oak","5445 West Loop","Houston ","TX","77081","(713) 662-3950"
"Plano","1224 N Central Expy","Plano ","TX","75074","(972) 423-7011"
"Porter","23575 Us Highway 59","Porter ","TX","77365","(281) 577-9151"
"Precinct Line","6411 Precinct Line Rd","North Richland","TX","76182","(817) 656-5274"
"Richardson","2140 Jupiter Road","Garland ","TX","75044","(972) 496-5292"
"Roanoke,TX","125 E State Hwy 114","Roanoke ","TX","76262","(817) 430-2571"
"Rockwall","765 East I-30","Rockwall ","TX","75087","(972) 771-2825"
"Rosenberg","24400 Commercial Drive","Rosenberg ","TX","77471","(281) 239-2777"
"Round Rock","2551 S Interstate Hwy 35","Round Rock","TX","78664","(512) 238-0820"
"Rowlett","2201 Lakeview Parkway","Rowlett ","TX","75088","(972) 463-7924"
"S Austin","1200 Home Depot Blvd","Sunset Valley","TX","78745","(512) 892-3035"
"S Fort Worth","7950 South Fwy","Fort Worth","TX","76134","(817) 293-0343"
"San Angelo","4363 Houston Harte Exwy","San Angelo","TX","76901","(325) 223-0439"
"Se Austin","3600 Interstate Hwy 35 S","Austin ","TX","78704","(512) 693-9811"
"Se Military","3111 Se Military","San Antonio","TX","78223","(210) 359-7000"
"Seguin","201 W I-10","Seguin ","TX","78155","(830) 372-0714"
"Sherman","601 Northcreek Dr","Sherman ","TX","75092","(903) 891-3396"
"Silverlake","10111 Broadway","Pearland ","TX","77584","(713) 436-5992"
"Skillman","6000 Skillman","Dallas ","TX","75231","(214) 750-5927"
"Slaughter Lane","8801 S I-35","Austin ","TX","78744","(512) 291-0153"
"Southlake, TX","300 Village Ctr Dr","Southlake ","TX","76092","(817) 251-1554"
"Spring","20131 N I-45","Spring ","TX","77373","(281) 288-4900"
"Spring Cypress","17928 Spring Cypress Rd","Cypress ","TX","77429","(281) 304-1956"
"Spring Valley","8400 Katy Freeway","Spring Valley","TX","77024","(713) 984-2741"
"Sugar Land","15505 Sw Freeway","Sugar Land","TX","77478","(281) 242-9200"
"Summerwood","12730 W Lake Houston Pky","Houston ","TX","77044","(346) 312-4600"
"Sw San Antonio","611 Sw Loop 410","San Antonio","TX","78227","(210) 675-2268"
"Temple","3550 S General Bruce Dr","Temple ","TX","76504","(254) 773-3870"
"Terrell","151 Windsor Ave","Terrell ","TX","75160","(972) 524-9901"
"Texarkana","4110 Saint Michael Dr","Texarkana ","TX","75503","(903) 832-6002"
"The Colony","5321 Highway 121","The Colony","TX","75056","(469) 384-3715"
"Tomball","21530 Sh 249","Houston ","TX","77070","(281) 257-8900"
"Torrey Chase","4159 Fm 1960 West","Houston ","TX","77068","(832) 484-1284"
"Tyler","3901 Old Jacksonville Hw","Tyler ","TX","75701","(903) 581-8513"
"Victoria","6708 Ne Zac Lentz Pkwy","Victoria ","TX","77904","(361) 575-4704"
"W El Paso","7545 N Mesa St","El Paso","TX","79912","(915) 585-2319"
"W Houston","2828 South Highway 6","Houston ","TX","77082","(281) 870-9369"
"W Mckinney","252 N Custer Road","Mckinney ","TX","75071","(469) 952-2436"
"W Plano","6200 W Park Blvd","Plano ","TX","75093","(972) 735-9333"
"Waco","5605 W Waco Dr","Waco ","TX","76710","(254) 772-8177"
"Waxahachie","1315 Hwy 77 North","Waxahachie ","TX","75165","(972) 938-8188"
"Weatherford","220 I-20 West","Weatherford ","TX","76086","(817) 599-0811"
"Weslaco","1500 W Expressway 83","Weslaco ","TX","78599","(956) 447-2645"
"West Woodlands","6119 Fm 1488","Magnolia ","TX","77354","(281) 356-2087"
"Westbury Square","11500 Chimney Rock","Houston ","TX","77035","(713) 723-1400"
"Westheimer","8400 Westheimer Road","Houston ","TX","77063","(713) 917-0510"
"Westmoreland","2901 W Wheatland Rd","Dallas ","TX","75237","(972) 709-3063"
"White Rock","11255 Garland Rd","Dallas ","TX","75218","(214) 328-1900"
"White Settlement","9509 White Settlement Rd","White Settlement","TX","76108","(817) 367-7115"
"Wichita Falls","3705 Kell Blvd","Wichita Falls","TX","76308","(940) 692-0405"
"Willowbrook","12727 Fm 1960 West","Houston ","TX","77065","(281) 807-5128"
"Windsor Park","4909 Windsor Hill","San Antonio","TX","78239","(210) 599-0800"
"Woodlands","19103 I-45","Conroe ","TX","77385","(936) 321-0100"
"Wylie","951 Westgate Way","Wylie ","TX","75098","(972) 429-4892"
